{
  "type": "FeatureCollection",
  "features": [
    {
      "type": "Feature",
      "properties": { "unit": "olivine_rich" },
      "geometry": {
        "type": "Polygon",
        "coordinates": [
          [
            [75.01, -5.02],
            [75.03, -5.02],
            [75.03, -5.00],
            [75.01, -5.00],
            [75.01, -5.02]
          ]
        ]
      }
    },
    {
      "type": "Feature",
      "properties": { "unit": "clay_unit" },
      "geometry": {
        "type": "Polygon",
        "coordinates": [
          [
            [75.05, -5.04],
            [75.07, -5.04],
            [75.07, -5.02],
            [75.05, -5.02],
            [75.05, -5.04]
          ]
        ]
      }
    },
    {
      "type": "Feature",
      "properties": { "unit": "basaltic_soil" },
      "geometry": {
        "type": "Point",
        "coordinates": [75.04, -5.01]
      }
    }
  ]
}
